ONEWEB-0228             
1 48780U 21045P   24116.37083873  .00000109  00000+0  25665-3 0  9998
2 48780  87.9037  54.9558 0001785  81.3731 278.7602 13.15548742141405
